API VERSION: 1.0
API SOURCE: NASA/JPL Horizons API

*******************************************************************************
JPL/HORIZONS                    (2006 RH120)               2024-Jun-26 09:33:12
Rec #:50039575 (+COV) Soln.date: 2022-Dec-20_14:42:34    # obs: 133 (2006-2007)
 
IAU76/J2000 helio. ecliptic osc. elements (au, days, deg., period=Julian yrs):
 
  EPOCH=  2454101.5 ! 2007-Jan-01.00 (TDB)         Residual RMS= .53055
   EC= .03744067182298642  QR= .9603646059202628   TP= 2454167.6067880942
   OM= 323.0881705631016   W=  206.3169504727512   IN= .3093522132878884
   A= .9977199096279007    MA= 294.6211657400694   ADIST= 1.035075213335539
   PER= .9966              N= .988988214           ANGMOM= .017170429
   DAN= 1.03092            DDN= .96397             L= 169.4047892
   B= -.1371466            MOID= .00306037         TP= 2007-Mar-08.1067880942
 
Asteroid physical parameters (km, seconds, rotational period in hours):
   GM= n.a.                RAD= n.a.               ROTPER= .04583
   H= 29.5                 G= .150                 B-V= n.a.
                           ALBEDO= n.a.            STYP= n.a.

Asteroid non-gravitational force model (AMRAT= m^2/kg;A1,A2,A3=au/d^2;R0=au):
   AMRAT=  0.
   A1= 1.382036413997E-10  A2= -5.072741303593E-11 A3= -1.298995921388E-11
 Non-standard or simulated/proxy model:
   ALN=  1.            NK=  0.       NM=  2.       NN=  0.       R0=  1.

ASTEROID comments: 
1: soln ref.= JPL#53, OCC=1           radar( 0 delay, 3 Dop.)
2: source=ORB; Nongravitational accels. using nonstandard g(r) = (1 au/ r)^2
*******************************************************************************


*******************************************************************************
Ephemeris / WWW_USER Wed Jun 26 09:33:12 2024 Pasadena, USA      / Horizons
*******************************************************************************
Target body name: (2006 RH120)                    {source: JPL#53}
Center body name: Sun (10)                        {source: DE441}
Center-site name: BODY CENTER
*******************************************************************************
Start time      : A.D. 2024-Jan-01 00:00:00.0000 TDB
Stop  time      : A.D. 2044-Jan-01 00:00:00.0000 TDB
Step-size       : 1440 minutes
*******************************************************************************
Center geodetic : 0.0, 0.0, 0.0                   {E-lon(deg),Lat(deg),Alt(km)}
Center cylindric: 0.0, 0.0, 0.0                   {E-lon(deg),Dxy(km),Dz(km)}
Center radii    : 695700.0, 695700.0, 695700.0 km {Equator_a, b, pole_c}
Small perturbers: Yes                             {source: SB441-N16}
Output units    : KM-S
Calendar mode   : Mixed Julian/Gregorian
Output type     : GEOMETRIC cartesian states
Output format   : 3 (position, velocity, LT, range, range-rate)
Reference frame : Ecliptic of J2000.0
*******************************************************************************
Initial IAU76/J2000 heliocentric ecliptic osculating elements (au, days, deg.):
  EPOCH=  2454101.5 ! 2007-Jan-01.00 (TDB)         Residual RMS= .53055        
   EC= .03744067182298642  QR= .9603646059202628   TP= 2454167.6067880942      
   OM= 323.0881705631016   W=  206.3169504727512   IN= .3093522132878884       
  Equivalent ICRF heliocentric cartesian coordinates (au, au/d):
   X=-1.716343206734086E-01  Y= 8.868999199857666E-01  Z= 3.884674209749523E-01
  VX=-1.708782257536563E-02 VY=-3.313193113386959E-03 VZ=-1.513976544398608E-03
Asteroid physical parameters (km, seconds, rotational period in hours):        
   GM= n.a.                RAD= n.a.               ROTPER= .04583              
   H= 29.5                 G= .150                 B-V= n.a.                   
                           ALBEDO= n.a.            STYP= n.a.                  
Asteroid non-gravitational force model (AMRAT= m^2/kg;A1,A2,A3=au/d^2;R0=au):  
   AMRAT=  0.                                                                  
   A1= 1.382036413997E-10  A2= -5.072741303593E-11 A3= -1.298995921388E-11     
 Non-standard or simulated/proxy model:                                        
   ALN=  1.            NK=  0.       NM=  2.       NN=  0.       R0=  1.       
*******************************************************************************
JDTDB
   X     Y     Z
   VX    VY    VZ
   LT    RG    RR
*******************************************************************************
$$SOE
2467438.500000000 = A.D. 2043-Jul-08 00:00:00.0000 TDB 
 X = 5.073134058678506E+07 Y =-1.514142737572536E+08 Z =-1.576989121524110E+06
 VX= 2.673106637953334E+01 VY= 9.979779192883624E+00 VZ=-9.910137980385469E-02
 LT= 5.326846083043680E+02 RG= 1.596948280623337E+08 RR=-9.694860258207514E-01
2467439.500000000 = A.D. 2043-Jul-09 00:00:00.0000 TDB 
 X = 5.303462766301368E+07 Y =-1.505336265295729E+08 Z =-1.585357802902855E+06
 VX= 2.658464247020416E+01 VY= 1.040527200423789E+01 VZ=-9.461268901315645E-02
 LT= 5.324038018440789E+02 RG= 1.596106444033813E+08 RR=-9.791747942774286E-01
2467440.500000000 = A.D. 2043-Jul-10 00:00:00.0000 TDB 
 X = 5.532497316920580E+07 Y =-1.496162963087382E+08 Z =-1.593337271806270E+06
 VX= 2.643149512264844E+01 VY= 1.082890529838899E+01 VZ=-9.009197141102820E-02
 LT= 5.321202334570729E+02 RG= 1.595256327396297E+08 RR=-9.886523923211030E-01
2467441.500000000 = A.D. 2043-Jul-11 00:00:00.0000 TDB 
 X = 5.760179677195361E+07 Y =-1.486624482335194E+08 Z =-1.600924797420360E+06
 VX= 2.627163781581502E+01 VY= 1.125057540605207E+01 VZ=-8.554006854932616E-02
 LT= 5.318339643561180E+02 RG= 1.594398114222050E+08 RR=-9.979163731468260E-01
2467442.500000000 = A.D. 2043-Jul-12 00:00:00.0000 TDB 
 X = 5.986451936649828E+07 Y =-1.476722564116504E+08 Z =-1.608117721951656E+06
 VX= 2.610508551464257E+01 VY= 1.167017838440497E+01 VZ=-8.095782910984450E-02
 LT= 5.315450564530569E+02 RG= 1.593531990118106E+08 RR=-1.006964332510961E+00
2467443.500000000 = A.D. 2043-Jul-13 00:00:00.0000 TDB 
 X = 6.211256320588012E+07 Y =-1.466459039427267E+08 Z =-1.614913461228155E+06
 VX= 2.593185468765696E+01 VY= 1.208761003423169E+01 VZ=-7.634610854973811E-02
 LT= 5.312535723462929E+02 RG= 1.592658142749760E+08 RR=-1.015793910465684E+00
2467444.500000000 = A.D. 2043-Jul-14 00:00:00.0000 TDB 
 X = 6.434535203160743E+07 Y =-1.455835829395944E+08 Z =-1.621309505268231E+06
 VX= 2.575196332453216E+01 VY= 1.250276591771821E+01 VZ=-7.170576871545276E-02
 LT= 5.309595753077663E+02 RG= 1.591776761801513E+08 RR=-1.024402793174644E+00
2467445.500000000 = A.D. 2043-Jul-15 00:00:00.0000 TDB 
 X = 6.656231120584092E+07 Y =-1.444854945481714E+08 Z =-1.627303418814942E+06
 VX= 2.556543095361609E+01 VY= 1.291554137691928E+01 VZ=-6.703767742518441E-02
 LT= 5.306631292693904E+02 RG= 1.590888038936423E+08 RR=-1.032788714809256E+00
2467446.500000000 = A.D. 2043-Jul-16 00:00:00.0000 TDB 
 X = 6.876286784509118E+07 Y =-1.433518489656455E+08 Z =-1.632892841832869E+06
 VX= 2.537227865942231E+01 VY= 1.332583155290031E+01 VZ=-6.234270802455999E-02
 LT= 5.303642988089377E+02 RG= 1.589992167753779E+08 RR=-1.040949459508726E+00
2467447.500000000 = A.D. 2043-Jul-17 00:00:00.0000 TDB 
 X = 7.094645095542561E+07 Y =-1.421828654569875E+08 Z =-1.638075489965722E+06
 VX= 2.517252910008687E+01 VY= 1.373353140556299E+01 VZ=-5.762173891996802E-02
 LT= 5.300631491353482E+02 RG= 1.589089343745067E+08 RR=-1.048882863389613E+00
2467448.500000000 = A.D. 2043-Jul-18 00:00:00.0000 TDB 
 X = 7.311249156918243E+07 Y =-1.409787723697233E+08 Z =-1.642849154952794E+06
 VX= 2.496620652479107E+01 VY= 1.413853573416083E+01 VZ=-5.287565309588071E-02
 LT= 5.297597460734578E+02 RG= 1.588179764248177E+08 RR=-1.056586816585179E+00
2467449.500000000 = A.D. 2043-Jul-19 00:00:00.0000 TDB 
 X = 7.526042288318858E+07 Y =-1.397398071469023E+08 Z =-1.647211705003537E+06
 VX= 2.475333679115593E+01 VY= 1.454073919850237E+01 VZ=-4.810533762794122E-02
 LT= 5.294541560481355E+02 RG= 1.587263628399861E+08 RR=-1.064059265282782E+00
2467450.500000000 = A.D. 2043-Jul-20 00:00:00.0000 TDB 
 X = 7.738968039847927E+07 Y =-1.384662163382050E+08 Z =-1.651161085129991E+06
 VX= 2.453394738260718E+01 VY= 1.494003634082788E+01 VZ=-4.331168320362533E-02
 LT= 5.291464460678399E+02 RG= 1.586341137086421E+08 RR=-1.071298213717986E+00
2467451.500000000 = A.D. 2043-Jul-21 00:00:00.0000 TDB 
 X = 7.949970206151666E+07 Y =-1.371582556091324E+08 Z =-1.654695317439169E+06
 VX= 2.430806742570950E+01 VY= 1.533632160835028E+01 VZ=-3.849558366353367E-02
 LT= 5.288366837076120E+02 RG= 1.585412492892735E+08 RR=-1.078301726088025E+00
2467452.500000000 = A.D. 2043-Jul-22 00:00:00.0000 TDB 
 X = 8.158992840690370E+07 Y =-1.358161897482208E+08 Z =-1.657812501386866E+06
 VX= 2.407572770743544E+01 VY= 1.572948937638984E+01 VZ=-3.365793558486896E-02
 LT= 5.285249370915365E+02 RG= 1.584477900049671E+08 RR=-1.085067928311579E+00
2467453.500000000 = A.D. 2043-Jul-23 00:00:00.0000 TDB 
 X = 8.365980270158473E+07 Y =-1.344402926722323E+08 Z =-1.660510813997418E+06
 VX= 2.383696069228813E+01 VY= 1.611943397209924E+01 VZ=-2.879963789344231E-02
 LT= 5.282112748747165E+02 RG= 1.583537564380049E+08 RR=-1.091595009651719E+00
2467454.500000000 = A.D. 2043-Jul-24 00:00:00.0000 TDB 
 X = 8.570877109051539E+07 Y =-1.330308474292726E+08 Z =-1.662788510050803E+06
 VX= 2.359180053918168E+01 VY= 1.650604969872053E+01 VZ=-2.392159150459339E-02
 LT= 5.278957662248021E+02 RG= 1.582591693243268E+08 RR=-1.097881224190520E+00
2467455.500000000 = A.D. 2043-Jul-25 00:00:00.0000 TDB 
 X = 8.773628274377342E+07 Y =-1.315881461997891E+08 Z =-1.664643922238261E+06
 VX= 2.334028311787266E+01 VY= 1.688923086039572E+01 VZ=-1.902469893366820E-02
 LT= 5.275784808031009E+02 RG= 1.581640495478674E+08 RR=-1.103924892287547E+00
